{"type": "FeatureCollection", "features": [ {"type": "Feature", "properties": {"norad_id": 40701, "name": "GAOFEN-8", "group": "resource", "lat": -22.121583284021117, "lon": 176.37770915310412, "alt_km": 460.7537641892468, "timestamp": "2025-12-20T16:47:35.948643+00:00", "meta": {"OBJECT_NAME": "GAOFEN-8", "OBJECT_ID": "2015-030A", "EPOCH": "2025-12-20T12:12:29.887200", "MEAN_MOTION": 15.38800517, "ECCENTRICITY": 0.0011961, "INCLINATION": 97.6902, "RA_OF_ASC_NODE": 173.0286, "ARG_OF_PERICENTER": 112.2877, "MEAN_ANOMALY": 247.9637, "EPHEMERIS_TYPE": 0, "CLASSIFICATION_TYPE": "U", "NORAD_CAT_ID": 40701, "ELEMENT_SET_NO": 999, "REV_AT_EPOCH": 58390, "BSTAR": 0.00048019, "MEAN_MOTION_DOT": 0.000184, "MEAN_MOTION_DDOT": 0}, "tle": {"line1": "1 40701U 15030A   25354.50867925  .00018400  00000+0  48019-3 0  9999", "line2": "2 40701  97.6902 173.0286 0011961 112.2877 247.9637 15.38800517583901"}}, "geometry": {"type": "Point", "coordinates": [176.37770915310412, -22.121583284021117]}}, {"type": "Feature", "properties": {"norad_id": 40718, "name": "CARBONITE 1 (CBNT-1)", "group": "resource", "lat": 69.4616437668503, "lon": 16.385749954850617, "alt_km": 606.5830877479711, "timestamp": "2025-12-20T16:47:35.948653+00:00", "meta": {"OBJECT_NAME": "CARBONITE 1 (CBNT-1)", "OBJECT_ID": "2015-032D", "EPOCH": "2025-12-20T11:26:38.903424", "MEAN_MOTION": 14.82779479, "ECCENTRICITY": 0.0014989, "INCLINATION": 97.6395, "RA_OF_ASC_NODE": 175.1795, "ARG_OF_PERICENTER": 156.1672, "MEAN_ANOMALY": 204.0239, "EPHEMERIS_TYPE": 0, "CLASSIFICATION_TYPE": "U", "NORAD_CAT_ID": 40718, "ELEMENT_SET_NO": 999, "REV_AT_EPOCH": 56285, "BSTAR": 0.00027823, "MEAN_MOTION_DOT": 2.203e-05, "MEAN_MOTION_DDOT": 0}, "tle": {"line1": "1 40718U 15032D   25354.47683916  .00002203  00000+0  27823-3 0  9995", "line2": "2 40718  97.6395 175.1795 0014989 156.1672 204.0239 14.82779479562859"}}, "geometry": {"type": "Point", "coordinates": [16.385749954850617, 69.4616437668503]}}, {"type": "Feature", "properties": {"norad_id": 40878, "name": "YAOGAN-27", "group": "resource", "lat": 74.5009259979852, "lon": -56.037840621705605, "alt_km": 1198.3087388148251, "timestamp": "2025-12-20T16:47:35.948664+00:00", "meta": {"OBJECT_NAME": "YAOGAN-27", "OBJECT_ID": "2015-040A", "EPOCH": "2025-12-20T12:44:53.235744", "MEAN_MOTION": 13.16060055, "ECCENTRICITY": 0.000759, "INCLINATION": 100.1006, "RA_OF_ASC_NODE": 343.7988, "ARG_OF_PERICENTER": 267.7113, "MEAN_ANOMALY": 92.3131, "EPHEMERIS_TYPE": 0, "CLASSIFICATION_TYPE": "U", "NORAD_CAT_ID": 40878, "ELEMENT_SET_NO": 999, "REV_AT_EPOCH": 49416, "BSTAR": -0.00086647, "MEAN_MOTION_DOT": -3.71e-06, "MEAN_MOTION_DDOT": 0}, "tle": {"line1": "1 40878U 15040A   25354.53117171 -.00000371  00000+0 -86647-3 0  9998", "line2": "2 40878 100.1006 343.7988 0007590 267.7113  92.3131 13.16060055494167"}}, "geometry": {"type": "Point", "coordinates": [-56.037840621705605, 74.5009259979852]}}, {"type": "Feature", "properties": {"norad_id": 40894, "name": "GAOFEN-9 01", "group": "resource", "lat": 20.315059168510786, "lon": 30.457746556889962, "alt_km": 602.671537313362, "timestamp": "2025-12-20T16:47:35.948674+00:00", "meta": {"OBJECT_NAME": "GAOFEN-9 01", "OBJECT_ID": "2015-047A", "EPOCH": "2025-12-20T13:27:42.199776", "MEAN_MOTION": 14.82439866, "ECCENTRICITY": 0.0027757, "INCLINATION": 97.6532, "RA_OF_ASC_NODE": 33.1783, "ARG_OF_PERICENTER": 9.1586, "MEAN_ANOMALY": 351.0128, "EPHEMERIS_TYPE": 0, "CLASSIFICATION_TYPE": "U", "NORAD_CAT_ID": 40894, "ELEMENT_SET_NO": 999, "REV_AT_EPOCH": 55372, "BSTAR": 0.00010557, "MEAN_MOTION_DOT": 8e-06, "MEAN_MOTION_DDOT": 0}, "tle": {"line1": "1 40894U 15047A   25354.56090509  .00000800  00000+0  10557-3 0  9993", "line2": "2 40894  97.6532  33.1783 0027757   9.1586 351.0128 14.82439866553724"}}, "geometry": {"type": "Point", "coordinates": [30.457746556889962, 20.315059168510786]}}, {"type": "Feature", "properties": {"norad_id": 41026, "name": "YAOGAN-28", "group": "resource", "lat": -65.91608789359624, "lon": 148.88896616238696, "alt_km": 508.1083635759851, "timestamp": "2025-12-20T16:47:35.948684+00:00", "meta": {"OBJECT_NAME": "YAOGAN-28", "OBJECT_ID": "2015-064A", "EPOCH": "2025-12-20T12:21:40.426272", "MEAN_MOTION": 15.24470083, "ECCENTRICITY": 0.0012624, "INCLINATION": 97.281, "RA_OF_ASC_NODE": 132.0885, "ARG_OF_PERICENTER": 101.2918, "MEAN_ANOMALY": 258.9739, "EPHEMERIS_TYPE": 0, "CLASSIFICATION_TYPE": "U", "NORAD_CAT_ID": 41026, "ELEMENT_SET_NO": 999, "REV_AT_EPOCH": 56343, "BSTAR": 0.00022412, "MEAN_MOTION_DOT": 5.447e-05, "MEAN_MOTION_DDOT": 0}, "tle": {"line1": "1 41026U 15064A   25354.51505123  .00005447  00000+0  22412-3 0  9993", "line2": "2 41026  97.2810 132.0885 0012624 101.2918 258.9739 15.24470083563434"}}, "geometry": {"type": "Point", "coordinates": [148.88896616238696, -65.91608789359624]}}, {"type": "Feature", "properties": {"norad_id": 41038, "name": "YAOGAN-29", "group": "resource", "lat": -75.90653254127123, "lon": 52.06818272579746, "alt_km": 627.649311889787, "timestamp": "2025-12-20T16:47:35.948694+00:00", "meta": {"OBJECT_NAME": "YAOGAN-29", "OBJECT_ID": "2015-069A", "EPOCH": "2025-12-20T12:17:16.867392", "MEAN_MOTION": 14.82893594, "ECCENTRICITY": 4.81e-05, "INCLINATION": 98.0211, "RA_OF_ASC_NODE": 17.7091, "ARG_OF_PERICENTER": 171.5241, "MEAN_ANOMALY": 188.5981, "EPHEMERIS_TYPE": 0, "CLASSIFICATION_TYPE": "U", "NORAD_CAT_ID": 41038, "ELEMENT_SET_NO": 999, "REV_AT_EPOCH": 54414, "BSTAR": 0.00013857, "MEAN_MOTION_DOT": 1.069e-05, "MEAN_MOTION_DDOT": 0}, "tle": {"line1": "1 41038U 15069A   25354.51200078  .00001069  00000+0  13857-3 0  9991", "line2": "2 41038  98.0211  17.7091 0000481 171.5241 188.5981 14.82893594544149"}}, "geometry": {"type": "Point", "coordinates": [52.06818272579746, -75.90653254127123]}}, {"type": "Feature", "properties": {"norad_id": 41167, "name": "KENT RIDGE 1", "group": "resource", "lat": -6.609683724628481, "lon": 126.39374465129534, "alt_km": 498.8013012003921, "timestamp": "2025-12-20T16:47:35.948704+00:00", "meta": {"OBJECT_NAME": "KENT RIDGE 1", "OBJECT_ID": "2015-077B", "EPOCH": "2025-12-20T02:45:02.433600", "MEAN_MOTION": 15.21689369, "ECCENTRICITY": 0.00085141, "INCLINATION": 14.9782, "RA_OF_ASC_NODE": 156.4146, "ARG_OF_PERICENTER": 235.187, "MEAN_ANOMALY": 124.765, "EPHEMERIS_TYPE": 0, "CLASSIFICATION_TYPE": "U", "NORAD_CAT_ID": 41167, "ELEMENT_SET_NO": 999, "REV_AT_EPOCH": 55376, "BSTAR": 0.0001172665, "MEAN_MOTION_DOT": 3.486e-05, "MEAN_MOTION_DDOT": 0}, "tle": {"line1": "1 41167U 15077B   25354.11461150  .00003486  00000+0  11727-3 0  9998", "line2": "2 41167  14.9782 156.4146 0008514 235.1870 124.7650 15.21689369553764"}}, "geometry": {"type": "Point", "coordinates": [126.39374465129534, -6.609683724628481]}}, {"type": "Feature", "properties": {"norad_id": 41194, "name": "GAOFEN-4", "group": "resource", "lat": 0.044486880641773995, "lon": 87.10492236195752, "alt_km": 35785.433466110924, "timestamp": "2025-12-20T16:47:35.948716+00:00", "meta": {"OBJECT_NAME": "GAOFEN-4", "OBJECT_ID": "2015-083A", "EPOCH": "2025-12-19T15:27:26.627616", "MEAN_MOTION": 1.00273138, "ECCENTRICITY": 0.0002945, "INCLINATION": 0.1878, "RA_OF_ASC_NODE": 81.7841, "ARG_OF_PERICENTER": 93.4275, "MEAN_ANOMALY": 250.8523, "EPHEMERIS_TYPE": 0, "CLASSIFICATION_TYPE": "U", "NORAD_CAT_ID": 41194, "ELEMENT_SET_NO": 999, "REV_AT_EPOCH": 3672, "BSTAR": 0, "MEAN_MOTION_DOT": -3.11e-06, "MEAN_MOTION_DDOT": 0}, "tle": {"line1": "1 41194U 15083A   25353.64405819 -.00000311  00000+0  00000+0 0  9995", "line2": "2 41194   0.1878  81.7841 0002945  93.4275 250.8523  1.00273138 36722"}}, "geometry": {"type": "Point", "coordinates": [87.10492236195752, 0.044486880641773995]}}, {"type": "Feature", "properties": {"norad_id": 41240, "name": "JASON-3", "group": "resource", "lat": 47.67453440857246, "lon": -68.13444927842835, "alt_km": 1310.3391747079322, "timestamp": "2025-12-20T16:47:35.948727+00:00", "meta": {"OBJECT_NAME": "JASON-3", "OBJECT_ID": "2016-002A", "EPOCH": "2025-12-20T10:32:55.874112", "MEAN_MOTION": 12.8762687, "ECCENTRICITY": 0.0007221, "INCLINATION": 66.0399, "RA_OF_ASC_NODE": 141.6361, "ARG_OF_PERICENTER": 271.2624, "MEAN_ANOMALY": 88.7568, "EPHEMERIS_TYPE": 0, "CLASSIFICATION_TYPE": "U", "NORAD_CAT_ID": 41240, "ELEMENT_SET_NO": 999, "REV_AT_EPOCH": 46423, "BSTAR": -4.0648e-05, "MEAN_MOTION_DOT": -7.3e-07, "MEAN_MOTION_DDOT": 0}, "tle": {"line1": "1 41240U 16002A   25354.43953558 -.00000073  00000+0 -40648-4 0  9998", "line2": "2 41240  66.0399 141.6361 0007221 271.2624  88.7568 12.87626870464232"}}, "geometry": {"type": "Point", "coordinates": [-68.13444927842835, 47.67453440857246]}}, {"type": "Feature", "properties": {"norad_id": 41335, "name": "SENTINEL-3A", "group": "resource", "lat": 5.514209733388096, "lon": -119.55881244240477, "alt_km": 804.7470589857048, "timestamp": "2025-12-20T16:47:35.948738+00:00", "meta": {"OBJECT_NAME": "SENTINEL-3A", "OBJECT_ID": "2016-011A", "EPOCH": "2025-12-20T10:55:46.796736", "MEAN_MOTION": 14.26733454, "ECCENTRICITY": 9.07e-05, "INCLINATION": 98.6304, "RA_OF_ASC_NODE": 59.3602, "ARG_OF_PERICENTER": 94.0334, "MEAN_ANOMALY": 266.095, "EPHEMERIS_TYPE": 0, "CLASSIFICATION_TYPE": "U", "NORAD_CAT_ID": 41335, "ELEMENT_SET_NO": 999, "REV_AT_EPOCH": 51257, "BSTAR": 6.0239e-05, "MEAN_MOTION_DOT": 1.02e-06, "MEAN_MOTION_DDOT": 0}, "tle": {"line1": "1 41335U 16011A   25354.45540274  .00000102  00000+0  60239-4 0  9991", "line2": "2 41335  98.6304  59.3602 0000907  94.0334 266.0950 14.26733454512579"}}, "geometry": {"type": "Point", "coordinates": [-119.55881244240477, 5.514209733388096]}}]}